{
  "type": "FeatureCollection",
  "features": [
    {
      "type": "Feature",
      "properties": {
        "norad_id": 22490,
        "name": "SCD 1",
        "group": "resource",
        "lat": 23.785580789704944,
        "lon": -26.78657790365363,
        "alt_km": 727.4902907902142,
        "timestamp": "2025-12-15T10:55:20.785914+00:00",
        "meta_object_name": "SCD 1",
        "meta_object_id": "1993-009B",
        "meta_epoch": "2025-12-14T21:37:05.469600",
        "meta_mean_motion": 14.46000545,
        "meta_eccentricity": 0.00418843,
        "meta_inclination": 24.9694,
        "meta_ra_of_asc_node": 265.3477,
        "meta_arg_of_pericenter": 347.9617,
        "meta_mean_anomaly": 72.9494,
        "meta_ephemeris_type": 0,
        "meta_classification_type": "U",
        "meta_norad_cat_id": 22490,
        "meta_element_set_no": 999,
        "meta_rev_at_epoch": 73441,
        "meta_bstar": 9.9623799e-05,
        "meta_mean_motion_dot": 5.49e-06,
        "meta_mean_motion_ddot": 0,
        "tle_line1": "1 22490U 93009B   25348.90075775  .00000549  00000+0  99624-4 0  9991",
        "tle_line2": "2 22490  24.9694 265.3477 0041884 347.9617  72.9494 14.46000545734412"
      },
      "geometry": {
        "type": "Point",
        "coordinates": [
          -26.78657790365363,
          23.785580789704944
        ]
      }
    },
    {
      "type": "Feature",
      "properties": {
        "norad_id": 25397,
        "name": "TECHSAT 1B (GO-32)",
        "group": "resource",
        "lat": 44.22614536083883,
        "lon": -36.13622801070768,
        "alt_km": 805.366864213529,
        "timestamp": "2025-12-15T10:55:20.785941+00:00",
        "meta_object_name": "TECHSAT 1B (GO-32)",
        "meta_object_id": "1998-043D",
        "meta_epoch": "2025-12-14T21:13:30.647136",
        "meta_mean_motion": 14.2437765,
        "meta_eccentricity": 0.00019968,
        "meta_inclination": 98.9922,
        "meta_ra_of_asc_node": 332.146,
        "meta_arg_of_pericenter": 53.8079,
        "meta_mean_anomaly": 306.3283,
        "meta_ephemeris_type": 0,
        "meta_classification_type": "U",
        "meta_norad_cat_id": 25397,
        "meta_element_set_no": 999,
        "meta_rev_at_epoch": 42509,
        "meta_bstar": 6.9086644e-05,
        "meta_mean_motion_dot": 1.13e-06,
        "meta_mean_motion_ddot": 0,
        "tle_line1": "1 25397U 98043D   25348.88438249  .00000113  00000+0  69087-4 0  9996",
        "tle_line2": "2 25397  98.9922 332.1460 0001996  53.8079 306.3283 14.24377650425097"
      },
      "geometry": {
        "type": "Point",
        "coordinates": [
          -36.13622801070768,
          44.22614536083883
        ]
      }
    },
    {
      "type": "Feature",
      "properties": {
        "norad_id": 25504,
        "name": "SCD 2",
        "group": "resource",
        "lat": 24.647798198674437,
        "lon": -134.884068028878,
        "alt_km": 740.3005731086705,
        "timestamp": "2025-12-15T10:55:20.785957+00:00",
        "meta_object_name": "SCD 2",
        "meta_object_id": "1998-060A",
        "meta_epoch": "2025-12-14T18:32:29.724000",
        "meta_mean_motion": 14.45424603,
        "meta_eccentricity": 0.00167282,
        "meta_inclination": 24.9936,
        "meta_ra_of_asc_node": 129.361,
        "meta_arg_of_pericenter": 335.2682,
        "meta_mean_anomaly": 164.7949,
        "meta_ephemeris_type": 0,
        "meta_classification_type": "U",
        "meta_norad_cat_id": 25504,
        "meta_element_set_no": 999,
        "meta_rev_at_epoch": 43361,
        "meta_bstar": 8.8951027e-05,
        "meta_mean_motion_dot": 5e-06,
        "meta_mean_motion_ddot": 0,
        "tle_line1": "1 25504U 98060A   25348.77256625  .00000500  00000+0  88951-4 0  9990",
        "tle_line2": "2 25504  24.9936 129.3610 0016728 335.2682 164.7949 14.45424603433616"
      },
      "geometry": {
        "type": "Point",
        "coordinates": [
          -134.884068028878,
          24.647798198674437
        ]
      }
    },
    {
      "type": "Feature",
      "properties": {
        "norad_id": 25757,
        "name": "DLR-TUBSAT",
        "group": "resource",
        "lat": 3.4723692947717617,
        "lon": 154.58234726567446,
        "alt_km": 710.5868263470784,
        "timestamp": "2025-12-15T10:55:20.785970+00:00",
        "meta_object_name": "DLR-TUBSAT",
        "meta_object_id": "1999-029B",
        "meta_epoch": "2025-12-14T22:32:19.113504",
        "meta_mean_motion": 14.52358518,
        "meta_eccentricity": 0.00140358,
        "meta_inclination": 98.6565,
        "meta_ra_of_asc_node": 333.5208,
        "meta_arg_of_pericenter": 185.9643,
        "meta_mean_anomaly": 174.1387,
        "meta_ephemeris_type": 0,
        "meta_classification_type": "U",
        "meta_norad_cat_id": 25757,
        "meta_element_set_no": 999,
        "meta_rev_at_epoch": 40650,
        "meta_bstar": 4.979434e-05,
        "meta_mean_motion_dot": 1.55e-06,
        "meta_mean_motion_ddot": 0,
        "tle_line1": "1 25757U 99029B   25348.93911011  .00000155  00000+0  49794-4 0  9999",
        "tle_line2": "2 25757  98.6565 333.5208 0014035 185.9643 174.1387 14.52358518406508"
      },
      "geometry": {
        "type": "Point",
        "coordinates": [
          154.58234726567446,
          3.4723692947717617
        ]
      }
    },
    {
      "type": "Feature",
      "properties": {
        "norad_id": 25994,
        "name": "TERRA",
        "group": "resource",
        "lat": -36.86395082310904,
        "lon": 47.073767145562336,
        "alt_km": 698.1036994615906,
        "timestamp": "2025-12-15T10:55:20.785981+00:00",
        "meta_object_name": "TERRA",
        "meta_object_id": "1999-068A",
        "meta_epoch": "2025-12-14T22:24:43.166880",
        "meta_mean_motion": 14.6090422,
        "meta_eccentricity": 0.00036018,
        "meta_inclination": 97.9748,
        "meta_ra_of_asc_node": 40.5378,
        "meta_arg_of_pericenter": 90.19,
        "meta_mean_anomaly": 12.8116,
        "meta_ephemeris_type": 0,
        "meta_classification_type": "U",
        "meta_norad_cat_id": 25994,
        "meta_element_set_no": 999,
        "meta_rev_at_epoch": 38270,
        "meta_bstar": 0.00011495651,
        "meta_mean_motion_dot": 5.18e-06,
        "meta_mean_motion_ddot": 0,
        "tle_line1": "1 25994U 99068A   25348.93383295  .00000518  00000+0  11496-3 0  9992",
        "tle_line2": "2 25994  97.9748  40.5378 0003601  90.1900  12.8116 14.60904220382708"
      },
      "geometry": {
        "type": "Point",
        "coordinates": [
          47.073767145562336,
          -36.86395082310904
        ]
      }
    },
    {
      "type": "Feature",
      "properties": {
        "norad_id": 27004,
        "name": "MAROC-TUBSAT",
        "group": "resource",
        "lat": 32.52311830239616,
        "lon": -15.73128273888713,
        "alt_km": 1000.4758973409316,
        "timestamp": "2025-12-15T10:55:20.785994+00:00",
        "meta_object_name": "MAROC-TUBSAT",
        "meta_object_id": "2001-056D",
        "meta_epoch": "2025-12-14T22:33:02.139840",
        "meta_mean_motion": 13.7025299,
        "meta_eccentricity": 0.00191107,
        "meta_inclination": 99.7912,
        "meta_ra_of_asc_node": 157.4231,
        "meta_arg_of_pericenter": 254.2683,
        "meta_mean_anomaly": 231.2223,
        "meta_ephemeris_type": 0,
        "meta_classification_type": "U",
        "meta_norad_cat_id": 27004,
        "meta_element_set_no": 999,
        "meta_rev_at_epoch": 20095,
        "meta_bstar": 3.4032635e-05,
        "meta_mean_motion_dot": -1.7e-07,
        "meta_mean_motion_ddot": 0,
        "tle_line1": "1 27004U 01056D   25348.93960810 -.00000017  00000+0  34033-4 0  9998",
        "tle_line2": "2 27004  99.7912 157.4231 0019110 254.2683 231.2223 13.70252990200956"
      },
      "geometry": {
        "type": "Point",
        "coordinates": [
          -15.73128273888713,
          32.52311830239616
        ]
      }
    },
    {
      "type": "Feature",
      "properties": {
        "norad_id": 27424,
        "name": "AQUA",
        "group": "resource",
        "lat": -26.704999968040987,
        "lon": 126.11321707416559,
        "alt_km": 693.090558245236,
        "timestamp": "2025-12-15T10:55:20.786005+00:00",
        "meta_object_name": "AQUA",
        "meta_object_id": "2002-022A",
        "meta_epoch": "2025-12-14T22:40:59.007360",
        "meta_mean_motion": 14.6181409,
        "meta_eccentricity": 0.00011688,
        "meta_inclination": 98.404,
        "meta_ra_of_asc_node": 309.86,
        "meta_arg_of_pericenter": 114.5725,
        "meta_mean_anomaly": 290.1501,
        "meta_ephemeris_type": 0,
        "meta_classification_type": "U",
        "meta_norad_cat_id": 27424,
        "meta_element_set_no": 999,
        "meta_rev_at_epoch": 25635,
        "meta_bstar": 0.00024483854,
        "meta_mean_motion_dot": 1.173e-05,
        "meta_mean_motion_ddot": 0,
        "tle_line1": "1 27424U 02022A   25348.94512740  .00001173  00000+0  24484-3 0  9995",
        "tle_line2": "2 27424  98.4040 309.8600 0001168 114.5725 290.1501 14.61814090256356"
      },
      "geometry": {
        "type": "Point",
        "coordinates": [
          126.11321707416559,
          -26.704999968040987
        ]
      }
    }
  ]
}